IRIDIUM 921             
1 24873U 97034E   24260.94959269  .00074645  00000+0  13989-2 0  9991
2 24873  86.3737 242.3899 0003903 140.8736 219.2805 15.48383824489331
IRIDIUM 26              
1 24903U 97043A   24260.93041548  .00001566  00000+0  52653-3 0  9990
2 24903  86.3964 225.2464 0002225  86.7518 273.3934 14.36593103417500
IRIDIUM 22              
1 24907U 97043E   24260.84821254  .00001430  00000+0  49119-3 0  9997
2 24907  86.3960 228.5887 0002405  88.7056 271.4416 14.35466007417554
DUMMY MASS 1            
1 24925U 97048A   24260.95675713  .00001337  00000+0  14830-3 0  9999
2 24925  86.3290 261.5637 0008432  49.3030 310.8926 14.86423471464539
DUMMY MASS 2            
1 24926U 97048B   24260.94101501  .00001321  00000+0  14735-3 0  9995
2 24926  86.3288 263.1314 0009524  57.0981 303.1158 14.86179799464310
IRIDIUM 29              
1 24944U 97051A   24260.96172321  .00001400  00000+0  47651-3 0  9990
2 24944  86.3900 258.4061 0002540  89.1552 270.9936 14.35911075414054
IRIDIUM 33              
1 24946U 97051C   24260.93639243  .00000929  00000+0  32267-3 0  9992
2 24946  86.3815 257.6632 0005841 242.7299 117.3303 14.34509566413562
IRIDIUM 28              
1 24948U 97051E   24260.97432599  .00001342  00000+0  44776-3 0  9991
2 24948  86.3907 256.0699 0001886  92.7605 267.3808 14.36865380414604
